[{"OBJECT_NAME":"STARLINK-30036","OBJECT_ID":"2023-067E","EPOCH":"2026-03-09T22:27:38.465568","MEAN_MOTION":15.0253487,"ECCENTRICITY":0.00012628,"INCLINATION":43.002,"RA_OF_ASC_NODE":273.4179,"ARG_OF_PERICENTER":253.9368,"MEAN_ANOMALY":106.1335,"EPHEMERIS_TYPE":0,"CLASSIFICATION_TYPE":"U","NORAD_CAT_ID":56692,"ELEMENT_SET_NO":999,"REV_AT_EPOCH":15456,"BSTAR":1.4313037e-5,"MEAN_MOTION_DOT":-1.0e-7,"MEAN_MOTION_DDOT":0},{"OBJECT_NAME":"RAPIDEYE 5","OBJECT_ID":"2008-040B","EPOCH":"2026-03-09T15:17:22.403904","MEAN_MOTION":15.02179038,"ECCENTRICITY":0.0014834,"INCLINATION":97.3944,"RA_OF_ASC_NODE":91.3825,"ARG_OF_PERICENTER":86.9831,"MEAN_ANOMALY":273.3091,"EPHEMERIS_TYPE":0,"CLASSIFICATION_TYPE":"U","NORAD_CAT_ID":33313,"ELEMENT_SET_NO":999,"REV_AT_EPOCH":95055,"BSTAR":0.00014028,"MEAN_MOTION_DOT":1.794e-5,"MEAN_MOTION_DDOT":0}]
